CSS (TIANHE)            
1 48274U 21035A   23276.55090971  .00050537  00000+0  52845-3 0  9998
2 48274  41.4732 216.3573 0009615 178.4823 181.6047 15.63552893138779
